GPS BIIR-2  (PRN 13)    
1 24876U 97035A   22073.63215983 -.00000007  00000+0  00000+0 0  9998
2 24876  55.4963 159.3728 0056293  52.8116 307.7357  2.00563505180753
GPS BIIR-4  (PRN 20)    
1 26360U 00025A   22073.75464902  .00000019  00000+0  00000+0 0  9993
2 26360  53.9829  82.7777 0050695 183.1603 350.7058  2.00552398160076
GPS BIIR-6  (PRN 22)    
1 26605U 00071A   22073.38076176 -.00000008  00000+0  00000+0 0  9996
2 26605  55.0784 156.4161 0132844 253.3418 143.9804  2.00564373156317
GPS BIIR-8  (PRN 16)    
1 27663U 03005A   22073.78516133  .00000041  00000+0  00000+0 0  9993
2 27663  55.5777 276.8177 0126311  40.2547 138.1315  2.00570220140113
GPS BIIR-9  (PRN 21)    
1 27704U 03010A   22073.36111498 -.00000073  00000+0  00000+0 0  9990
2 27704  54.9899  27.1567 0247221 303.0905 148.4608  2.00575882138901
GPS BIIR-11 (PRN 19)    
1 28190U 04009A   22073.56334583 -.00000067  00000+0  00000+0 0  9996
2 28190  56.0571 337.7852 0088403 116.2799  60.1147  2.00562285131744
GPS BIIR-13 (PRN 02)    
1 28474U 04045A   22073.71260896 -.00000072  00000+0  00000+0 0  9999
2 28474  55.3190  27.2460 0208500 277.7040 274.3898  2.00569626127235
GPS BIIRM-1 (PRN 17)    
1 28874U 05038A   22072.20434542 -.00000071  00000+0  00000+0 0  9999
2 28874  56.1279 335.2686 0137892 274.3562  20.8336  2.00552605120609
GPS BIIRM-2 (PRN 31)    
1 29486U 06042A   22073.41013955  .00000006  00000+0  00000+0 0  9997
2 29486  54.7286 213.0516 0103694  20.7248 344.5018  2.00559954113196
GPS BIIRM-3 (PRN 12)    
1 29601U 06052A   22072.85072262  .00000043  00000+0  00000+0 0  9991
2 29601  55.5823 275.7889 0084999  71.6340 289.3246  2.00573953112196
GPS BIIRM-4 (PRN 15)    
1 32260U 07047A   22073.65888522  .00000004  00000+0  00000+0 0  9991
2 32260  53.2869 144.4717 0137427  61.4414 299.9944  2.00553920105615
GPS BIIRM-5 (PRN 29)    
1 32384U 07062A   22073.72951615 -.00000063  00000+0  00000+0 0  9993
2 32384  56.2431 335.9576 0017451 132.7952  48.8987  2.00556563104313
GPS BIIRM-6 (PRN 07)    
1 32711U 08012A   22073.57646459  .00000004  00000+0  00000+0 0  9997
2 32711  54.4867 212.0024 0158763 229.5808 128.9863  2.00562041102555
GPS BIIRM-8 (PRN 05)    
1 35752U 09043A   22073.69499679  .00000029  00000+0  00000+0 0  9990
2 35752  54.9996  89.3419 0056776  56.3759  47.4750  2.00562608 92160
GPS BIIF-1  (PRN 25)    
1 36585U 10022A   22073.43035993  .00000044  00000+0  00000+0 0  9998
2 36585  54.8630 271.3509 0103555  55.9998 332.4651  2.00560520 86396
GPS BIIF-2  (PRN 01)    
1 37753U 11036A   22073.77329968 -.00000062  00000+0  00000+0 0  9998
2 37753  56.5648  32.3903 0113803  49.9460 311.0011  2.00564855 78073
GPS BIIF-3  (PRN 24)    
1 38833U 12053A   22073.75585638 -.00000002  00000+0  00000+0 0  9998
2 38833  53.5399 207.2284 0122236  45.7432 315.2134  2.00560690 68244
GPS BIIF-4  (PRN 27)    
1 39166U 13023A   22073.11711242 -.00000060  00000+0  00000+0 0  9992
2 39166  55.7584 331.6426 0102326  36.3210 324.4133  2.00566590 64671
GPS BIIF-5  (PRN 30)    
1 39533U 14008A   22073.60915139  .00000004  00000+0  00000+0 0  9996
2 39533  53.6365 212.7302 0057220 205.7130 153.9630  2.00575399 58486
GPS BIIF-6  (PRN 06)    
1 39741U 14026A   22072.89453974 -.00000064  00000+0  00000+0 0  9998
2 39741  56.5279  31.9505 0028791 304.3675  55.3527  2.00562855 57325
GPS BIIF-7  (PRN 09)    
1 40105U 14045A   22072.98569447 -.00000008  00000+0  00000+0 0  9996
2 40105  54.6695 150.6160 0019608 109.6635 250.5954  2.00571366 54863
GPS BIIF-8  (PRN 03)    
1 40294U 14068A   22073.35930916  .00000031  00000+0  00000+0 0  9990
2 40294  55.7439  91.6909 0037518  52.0660 308.3347  2.00564994 54007
GPS BIIF-9  (PRN 26)    
1 40534U 15013A   22072.99304068  .00000043  00000+0  00000+0 0  9993
2 40534  53.7656 268.6473 0068388  20.0363 340.2543  2.00558372 50618
GPS BIIF-10 (PRN 08)    
1 40730U 15033A   22073.15639510 -.00000058  00000+0  00000+0 0  9992
2 40730  55.2593 330.5152 0073479   5.4905 354.6358  2.00557009 48786
GPS BIIF-11 (PRN 10)    
1 41019U 15062A   22073.20488155  .00000029  00000+0  00000+0 0  9995
2 41019  55.7336  91.5377 0076849 218.0051 141.5104  2.00563078 46624
GPS BIIF-12 (PRN 32)    
1 41328U 16007A   22073.30148417 -.00000005  00000+0  00000+0 0  9998
2 41328  54.8897 151.2520 0059190 228.4659 131.0727  2.00574769 44635
GPS BIII-1  (PRN 04)    
1 43873U 18109A   22073.50215802 -.00000004  00000+0  00000+0 0  9994
2 43873  55.0702 153.6425 0017778 194.2830 207.4124  2.00567051 23875
GPS BIII-2  (PRN 18)    
1 44506U 19056A   22073.42523065 -.00000063  00000+0  00000+0 0  9999
2 44506  55.6362  32.8289 0021276 183.4122  65.8359  2.00570909 18860
GPS BIII-3  (PRN 23)    
1 45854U 20041A   22073.42553215  .00000029  00000+0  00000+0 0  9993
2 45854  55.4505  90.0971 0019809 177.8646  10.0524  2.00560226 12833
GPS BIII-4  (PRN 14)    
1 46826U 20078A   22073.44980181  .00000041  00000+0  00000+0 0  9995
2 46826  54.6313 273.9477 0015482 181.6197 356.5529  2.00566175 10303
GPS BIII-5 (PRN 11)     
1 48859U 21054A   22073.60282786 -.00000060  00000+0  00000+0 0  9994
2 48859  55.1396  34.8680 0002886 208.5155 263.5143  2.00551216  5555
